{
  "norad_id": 59081,
  "name": "STARLINK-31292",
  "history": [
    {
      "epoch": "2026-03-28T17:03:57.338784Z",
      "apogee_km": 483.69193342287053,
      "perigee_km": 482.34001184114277,
      "latitude_deg": -5.3279296604659286e-05,
      "longitude_deg": 120.90602299831937,
      "height_km": 483.2008798370417,
      "semi_major_axis_km": 6861.152972632006,
      "eccentricity": 9.852e-05,
      "inclination_deg": 43.0029,
      "raan_deg": 203.0226,
      "arg_perigee_deg": 232.8229,
      "mean_anomaly_deg": 127.2532,
      "mean_motion_rev_day": 15.27591062
    },
    {
      "epoch": "2026-03-29T00:54:46.098720Z",
      "apogee_km": 483.2517082656768,
      "perigee_km": 482.92923057461394,
      "latitude_deg": 3.268611419527045e-05,
      "longitude_deg": 1.036088353246564,
      "height_km": 482.7187928117379,
      "semi_major_axis_km": 6861.227469420145,
      "eccentricity": 2.35e-05,
      "inclination_deg": 43.0038,
      "raan_deg": 201.178,
      "arg_perigee_deg": 23.8868,
      "mean_anomaly_deg": 336.1995,
      "mean_motion_rev_day": 15.27566183
    },
    {
      "epoch": "2026-03-30T00:27:06.384960Z",
      "apogee_km": 483.65333709831157,
      "perigee_km": 482.48693188544894,
      "latitude_deg": 5.676010112554393e-06,
      "longitude_deg": 1.4453229813654778,
      "height_km": 482.9536536417483,
      "semi_major_axis_km": 6861.20713449188,
      "eccentricity": 8.5e-05,
      "inclination_deg": 43.0034,
      "raan_deg": 195.6385,
      "arg_perigee_deg": 259.4338,
      "mean_anomaly_deg": 100.6418,
      "mean_motion_rev_day": 15.27572974
    },
    {
      "epoch": "2026-03-30T06:43:43.992192Z",
      "apogee_km": 483.69168790660115,
      "perigee_km": 482.4499465158424,
      "latitude_deg": 5.11752439133202e-05,
      "longitude_deg": -94.44611687444817,
      "height_km": 482.9450032339578,
      "semi_major_axis_km": 6861.2078172112215,
      "eccentricity": 9.049e-05,
      "inclination_deg": 43.0029,
      "raan_deg": 194.1615,
      "arg_perigee_deg": 260.9541,
      "mean_anomaly_deg": 99.1209,
      "mean_motion_rev_day": 15.27572746
    },
    {
      "epoch": "2026-03-30T08:17:53.405664Z",
      "apogee_km": 483.69283634399926,
      "perigee_km": 482.4487621458411,
      "latitude_deg": 2.3938789877335183e-05,
      "longitude_deg": -118.42011674329503,
      "height_km": 482.99282363421054,
      "semi_major_axis_km": 6861.20779924492,
      "eccentricity": 9.066e-05,
      "inclination_deg": 43.0021,
      "raan_deg": 193.7912,
      "arg_perigee_deg": 256.4671,
      "mean_anomaly_deg": 103.608,
      "mean_motion_rev_day": 15.27572752
    },
    {
      "epoch": "2026-03-30T16:08:39.918336Z",
      "apogee_km": 483.6912486464562,
      "perigee_km": 482.4112253689609,
      "latitude_deg": 5.6372142432039736e-05,
      "longitude_deg": 121.71698123858069,
      "height_km": 483.24831465995976,
      "semi_major_axis_km": 6861.188237007708,
      "eccentricity": 9.328e-05,
      "inclination_deg": 43.002,
      "raan_deg": 191.9443,
      "arg_perigee_deg": 228.8879,
      "mean_anomaly_deg": 131.1893,
      "mean_motion_rev_day": 15.27579285
    },
    {
      "epoch": "2026-03-31T07:50:13.773120Z",
      "apogee_km": 483.58386949040596,
      "perigee_km": 482.5395950433549,
      "latitude_deg": -6.171283746611367e-06,
      "longitude_deg": -118.01092404528798,
      "height_km": 483.0377334665726,
      "semi_major_axis_km": 6861.19873226688,
      "eccentricity": 7.61e-05,
      "inclination_deg": 43.0016,
      "raan_deg": 188.252,
      "arg_perigee_deg": 247.5065,
      "mean_anomaly_deg": 112.5706,
      "mean_motion_rev_day": 15.2757578
    },
    {
      "epoch": "2026-04-01T07:22:35.592096Z",
      "apogee_km": 483.6660185972114,
      "perigee_km": 482.5147046459315,
      "latitude_deg": 2.0098793768283287e-05,
      "longitude_deg": -117.60733567353262,
      "height_km": 483.0141782221395,
      "semi_major_axis_km": 6861.227361621572,
      "eccentricity": 8.39e-05,
      "inclination_deg": 43.0012,
      "raan_deg": 182.7132,
      "arg_perigee_deg": 255.1521,
      "mean_anomaly_deg": 104.9238,
      "mean_motion_rev_day": 15.27566219
    },
    {
      "epoch": "2026-04-02T14:45:42.025536Z",
      "apogee_km": 483.62027343428963,
      "perigee_km": 482.4413875776527,
      "latitude_deg": 5.3005096654116444e-05,
      "longitude_deg": 122.94055360848093,
      "height_km": 483.19247765196644,
      "semi_major_axis_km": 6861.167830505971,
      "eccentricity": 8.591e-05,
      "inclination_deg": 43.0004,
      "raan_deg": 175.3268,
      "arg_perigee_deg": 229.1399,
      "mean_anomaly_deg": 130.9379,
      "mean_motion_rev_day": 15.275861
    },
    {
      "epoch": "2026-04-03T06:27:17.604000Z",
      "apogee_km": 483.6445615891935,
      "perigee_km": 482.55362505035555,
      "latitude_deg": 4.274956109987092e-05,
      "longitude_deg": -116.7961981671183,
      "height_km": 483.32957533254284,
      "semi_major_axis_km": 6861.236093319774,
      "eccentricity": 7.95e-05,
      "inclination_deg": 42.9989,
      "raan_deg": 171.6328,
      "arg_perigee_deg": 213.5054,
      "mean_anomaly_deg": 146.5748,
      "mean_motion_rev_day": 15.27563303
    },
    {
      "epoch": "2026-04-04T05:59:38.335200Z",
      "apogee_km": 484.1344533390193,
      "perigee_km": 481.994856214993,
      "latitude_deg": -3.909901953815241e-05,
      "longitude_deg": -116.3832819020906,
      "height_km": 482.40329752790154,
      "semi_major_axis_km": 6861.201654777005,
      "eccentricity": 0.00015592,
      "inclination_deg": 43.0025,
      "raan_deg": 166.0989,
      "arg_perigee_deg": 294.1934,
      "mean_anomaly_deg": 65.8754,
      "mean_motion_rev_day": 15.27574804
    },
    {
      "epoch": "2026-04-05T13:22:47.142912Z",
      "apogee_km": 483.8421159592226,
      "perigee_km": 482.3614606287083,
      "latitude_deg": -1.8193813947894084e-05,
      "longitude_deg": 124.15377169794186,
      "height_km": 482.82594464795596,
      "semi_major_axis_km": 6861.238788293966,
      "eccentricity": 0.0001079,
      "inclination_deg": 43.0013,
      "raan_deg": 158.7116,
      "arg_perigee_deg": 274.0608,
      "mean_anomaly_deg": 86.012,
      "mean_motion_rev_day": 15.27562403
    },
    {
      "epoch": "2026-04-06T05:04:19.810560Z",
      "apogee_km": 483.92726016030156,
      "perigee_km": 482.16832682664244,
      "latitude_deg": -7.078921264361234e-06,
      "longitude_deg": -115.567597248226,
      "height_km": 483.03505002886203,
      "semi_major_axis_km": 6861.184793493472,
      "eccentricity": 0.00012818,
      "inclination_deg": 43.0063,
      "raan_deg": 155.0208,
      "arg_perigee_deg": 256.1846,
      "mean_anomaly_deg": 103.8863,
      "mean_motion_rev_day": 15.27580435
    },
    {
      "epoch": "2026-04-07T04:36:40.067424Z",
      "apogee_km": 483.5973849521133,
      "perigee_km": 482.5037116569147,
      "latitude_deg": -3.419394936902995e-05,
      "longitude_deg": -115.16184303339271,
      "height_km": 483.02459737054045,
      "semi_major_axis_km": 6861.187548304514,
      "eccentricity": 7.97e-05,
      "inclination_deg": 42.9999,
      "raan_deg": 149.4777,
      "arg_perigee_deg": 248.7768,
      "mean_anomaly_deg": 111.2998,
      "mean_motion_rev_day": 15.27579515
    }
  ]
}